[{"OBJECT_NAME":"STARS (KUKAI)","OBJECT_ID":"2009-002G","EPOCH":"2026-03-09T17:14:18.106368","MEAN_MOTION":14.9493854,"ECCENTRICITY":0.00097723,"INCLINATION":98.1461,"RA_OF_ASC_NODE":12.0831,"ARG_OF_PERICENTER":130.4363,"MEAN_ANOMALY":229.771,"EPHEMERIS_TYPE":0,"CLASSIFICATION_TYPE":"U","NORAD_CAT_ID":33498,"ELEMENT_SET_NO":999,"REV_AT_EPOCH":92361,"BSTAR":0.00058664337,"MEAN_MOTION_DOT":6.351e-5,"MEAN_MOTION_DDOT":0},{"OBJECT_NAME":"IRIDE-MS2-HEO-8","OBJECT_ID":"2025-135BM","EPOCH":"2026-03-09T23:04:08.225184","MEAN_MOTION":14.94180464,"ECCENTRICITY":0.0003471,"INCLINATION":97.7603,"RA_OF_ASC_NODE":184.687,"ARG_OF_PERICENTER":319.3554,"MEAN_ANOMALY":40.7407,"EPHEMERIS_TYPE":0,"CLASSIFICATION_TYPE":"U","NORAD_CAT_ID":64587,"ELEMENT_SET_NO":999,"REV_AT_EPOCH":3909,"BSTAR":0.00027897299,"MEAN_MOTION_DOT":2.931e-5,"MEAN_MOTION_DDOT":0}]
